CCSDS_OMM_VERS = 2.0
CREATION_DATE  = 
ORIGINATOR     = 

OBJECT_NAME    = UNKNOWN
OBJECT_ID      = 
CENTER_NAME    = EARTH
REF_FRAME      = TEME
TIME_SYSTEM    = UTC
MEAN_ELEMENT_THEORY = SGP/SGP4

EPOCH          = 2026-01-23T02:29:41.151264
MEAN_MOTION    = 13.54964431
ECCENTRICITY   = .005781
INCLINATION    = 100.3191
RA_OF_ASC_NODE = 261.5888
ARG_OF_PERICENTER = 333.6056
MEAN_ANOMALY   = 26.2137

EPHEMERIS_TYPE = 0
CLASSIFICATION_TYPE = U
NORAD_CAT_ID   = 81438
ELEMENT_SET_NO = 999
REV_AT_EPOCH   = 59754
BSTAR          = .61793E-2
MEAN_MOTION_DOT = .4252E-4
MEAN_MOTION_DDOT = 0

CCSDS_OMM_VERS = 2.0
CREATION_DATE  = 
ORIGINATOR     = 

OBJECT_NAME    = UNKNOWN
OBJECT_ID      = 
CENTER_NAME    = EARTH
REF_FRAME      = TEME
TIME_SYSTEM    = UTC
MEAN_ELEMENT_THEORY = SGP/SGP4

EPOCH          = 2026-01-21T19:23:15.474336
MEAN_MOTION    = 12.62639016
ECCENTRICITY   = .059991
INCLINATION    = 67.1601
RA_OF_ASC_NODE = 64.3178
ARG_OF_PERICENTER = 178.8059
MEAN_ANOMALY   = 181.4561

EPHEMERIS_TYPE = 0
CLASSIFICATION_TYPE = U
NORAD_CAT_ID   = 81439
ELEMENT_SET_NO = 999
REV_AT_EPOCH   = 26695
BSTAR          = .37402E-3
MEAN_MOTION_DOT = .83E-6
MEAN_MOTION_DDOT = 0

CCSDS_OMM_VERS = 2.0
CREATION_DATE  = 
ORIGINATOR     = 

OBJECT_NAME    = UNKNOWN
OBJECT_ID      = 
CENTER_NAME    = EARTH
REF_FRAME      = TEME
TIME_SYSTEM    = UTC
MEAN_ELEMENT_THEORY = SGP/SGP4

EPOCH          = 2026-01-22T23:38:35.512800
MEAN_MOTION    = 15.06941549
ECCENTRICITY   = .001931
INCLINATION    = 66.7923
RA_OF_ASC_NODE = 231.0682
ARG_OF_PERICENTER = 85.9934
MEAN_ANOMALY   = 274.3411

EPHEMERIS_TYPE = 0
CLASSIFICATION_TYPE = U
NORAD_CAT_ID   = 81449
ELEMENT_SET_NO = 999
REV_AT_EPOCH   = 63975
BSTAR          = .50676E-2
MEAN_MOTION_DOT = .77009E-3
MEAN_MOTION_DDOT = 0

CCSDS_OMM_VERS = 2.0
CREATION_DATE  = 
ORIGINATOR     = 

OBJECT_NAME    = UNKNOWN
OBJECT_ID      = 
CENTER_NAME    = EARTH
REF_FRAME      = TEME
TIME_SYSTEM    = UTC
MEAN_ELEMENT_THEORY = SGP/SGP4

EPOCH          = 2026-01-21T01:04:08.776992
MEAN_MOTION    = 14.28675103
ECCENTRICITY   = .014402
INCLINATION    = 98.9524
RA_OF_ASC_NODE = 298.9631
ARG_OF_PERICENTER = 244.5560
MEAN_ANOMALY   = 127.5097

EPHEMERIS_TYPE = 0
CLASSIFICATION_TYPE = U
NORAD_CAT_ID   = 81478
ELEMENT_SET_NO = 999
REV_AT_EPOCH   = 62855
BSTAR          = .35174E-2
MEAN_MOTION_DOT = .9847E-4
MEAN_MOTION_DDOT = 0

CCSDS_OMM_VERS = 2.0
CREATION_DATE  = 
ORIGINATOR     = 

OBJECT_NAME    = UNKNOWN
OBJECT_ID      = 
CENTER_NAME    = EARTH
REF_FRAME      = TEME
TIME_SYSTEM    = UTC
MEAN_ELEMENT_THEORY = SGP/SGP4

EPOCH          = 2026-01-22T14:31:40.282176
MEAN_MOTION    = 13.56532611
ECCENTRICITY   = .004398
INCLINATION    = 99.9988
RA_OF_ASC_NODE = 260.8711
ARG_OF_PERICENTER = 258.6669
MEAN_ANOMALY   = 131.0061

EPHEMERIS_TYPE = 0
CLASSIFICATION_TYPE = U
NORAD_CAT_ID   = 81488
ELEMENT_SET_NO = 999
REV_AT_EPOCH   = 60217
BSTAR          = .20893E-3
MEAN_MOTION_DOT = .102E-5
MEAN_MOTION_DDOT = 0

CCSDS_OMM_VERS = 2.0
CREATION_DATE  = 
ORIGINATOR     = 

OBJECT_NAME    = UNKNOWN
OBJECT_ID      = 
CENTER_NAME    = EARTH
REF_FRAME      = TEME
TIME_SYSTEM    = UTC
MEAN_ELEMENT_THEORY = SGP/SGP4

EPOCH          = 2026-01-22T23:06:41.141952
MEAN_MOTION    = 13.84516466
ECCENTRICITY   = .0027916
INCLINATION    = 100.3027
RA_OF_ASC_NODE = 286.5661
ARG_OF_PERICENTER = 272.2037
MEAN_ANOMALY   = 103.5400

EPHEMERIS_TYPE = 0
CLASSIFICATION_TYPE = U
NORAD_CAT_ID   = 81497
ELEMENT_SET_NO = 999
REV_AT_EPOCH   = 22200
BSTAR          = .4455E-2
MEAN_MOTION_DOT = .4963E-4
MEAN_MOTION_DDOT = 0

CCSDS_OMM_VERS = 2.0
CREATION_DATE  = 
ORIGINATOR     = 

OBJECT_NAME    = UNKNOWN
OBJECT_ID      = 
CENTER_NAME    = EARTH
REF_FRAME      = TEME
TIME_SYSTEM    = UTC
MEAN_ELEMENT_THEORY = SGP/SGP4

EPOCH          = 2026-01-23T07:37:48.669888
MEAN_MOTION    = 14.47406251
ECCENTRICITY   = .0002577
INCLINATION    = 74.0493
RA_OF_ASC_NODE = 143.3998
ARG_OF_PERICENTER = 273.2619
MEAN_ANOMALY   = 86.8245

EPHEMERIS_TYPE = 0
CLASSIFICATION_TYPE = U
NORAD_CAT_ID   = 81499
ELEMENT_SET_NO = 999
REV_AT_EPOCH   = 48843
BSTAR          = .13749E-2
MEAN_MOTION_DOT = .502E-4
MEAN_MOTION_DDOT = 0

CCSDS_OMM_VERS = 2.0
CREATION_DATE  = 
ORIGINATOR     = 

OBJECT_NAME    = UNKNOWN
OBJECT_ID      = 
CENTER_NAME    = EARTH
REF_FRAME      = TEME
TIME_SYSTEM    = UTC
MEAN_ELEMENT_THEORY = SGP/SGP4

EPOCH          = 2026-01-23T11:35:56.375232
MEAN_MOTION    = 14.13548589
ECCENTRICITY   = .0234972
INCLINATION    = 98.1974
RA_OF_ASC_NODE = 107.2855
ARG_OF_PERICENTER = 28.1862
MEAN_ANOMALY   = 333.1802

EPHEMERIS_TYPE = 0
CLASSIFICATION_TYPE = U
NORAD_CAT_ID   = 81535
ELEMENT_SET_NO = 999
REV_AT_EPOCH   = 39329
BSTAR          = .70311E-3
MEAN_MOTION_DOT = .1684E-4
MEAN_MOTION_DDOT = 0

CCSDS_OMM_VERS = 2.0
CREATION_DATE  = 
ORIGINATOR     = 

OBJECT_NAME    = UNKNOWN
OBJECT_ID      = 
CENTER_NAME    = EARTH
REF_FRAME      = TEME
TIME_SYSTEM    = UTC
MEAN_ELEMENT_THEORY = SGP/SGP4

EPOCH          = 2026-01-23T02:31:04.922976
MEAN_MOTION    = 12.55923496
ECCENTRICITY   = .0023928
INCLINATION    = 101.9636
RA_OF_ASC_NODE = 249.6629
ARG_OF_PERICENTER = 226.6802
MEAN_ANOMALY   = 290.1565

EPHEMERIS_TYPE = 0
CLASSIFICATION_TYPE = U
NORAD_CAT_ID   = 81536
ELEMENT_SET_NO = 999
REV_AT_EPOCH   = 55700
BSTAR          = .48047E-2
MEAN_MOTION_DOT = .744E-5
MEAN_MOTION_DDOT = 0

CCSDS_OMM_VERS = 2.0
CREATION_DATE  = 
ORIGINATOR     = 

OBJECT_NAME    = UNKNOWN
OBJECT_ID      = 
CENTER_NAME    = EARTH
REF_FRAME      = TEME
TIME_SYSTEM    = UTC
MEAN_ELEMENT_THEORY = SGP/SGP4

EPOCH          = 2026-01-20T06:45:21.351168
MEAN_MOTION    = 14.07120841
ECCENTRICITY   = .0074427
INCLINATION    = 71.0395
RA_OF_ASC_NODE = 29.5094
ARG_OF_PERICENTER = 94.4825
MEAN_ANOMALY   = 266.4801

EPHEMERIS_TYPE = 0
CLASSIFICATION_TYPE = U
NORAD_CAT_ID   = 81537
ELEMENT_SET_NO = 999
REV_AT_EPOCH   = 62588
BSTAR          = .28648E-3
MEAN_MOTION_DOT = .446E-5
MEAN_MOTION_DDOT = 0

CCSDS_OMM_VERS = 2.0
CREATION_DATE  = 
ORIGINATOR     = 

OBJECT_NAME    = UNKNOWN
OBJECT_ID      = 
CENTER_NAME    = EARTH
REF_FRAME      = TEME
TIME_SYSTEM    = UTC
MEAN_ELEMENT_THEORY = SGP/SGP4

EPOCH          = 2026-01-23T10:59:28.839552
MEAN_MOTION    = 13.31512221
ECCENTRICITY   = .0245828
INCLINATION    = 67.2917
RA_OF_ASC_NODE = 190.7205
ARG_OF_PERICENTER = 53.7305
MEAN_ANOMALY   = 338.4756

EPHEMERIS_TYPE = 0
CLASSIFICATION_TYPE = U
NORAD_CAT_ID   = 81599
ELEMENT_SET_NO = 999
REV_AT_EPOCH   = 59063
BSTAR          = .24235E-2
MEAN_MOTION_DOT = .1309E-4
MEAN_MOTION_DDOT = 0

CCSDS_OMM_VERS = 2.0
CREATION_DATE  = 
ORIGINATOR     = 

OBJECT_NAME    = UNKNOWN
OBJECT_ID      = 
CENTER_NAME    = EARTH
REF_FRAME      = TEME
TIME_SYSTEM    = UTC
MEAN_ELEMENT_THEORY = SGP/SGP4

EPOCH          = 2026-01-22T11:07:36.539904
MEAN_MOTION    = 12.81556508
ECCENTRICITY   = .0172411
INCLINATION    = 56.4334
RA_OF_ASC_NODE = 98.1795
ARG_OF_PERICENTER = 191.6532
MEAN_ANOMALY   = 168.0379

EPHEMERIS_TYPE = 0
CLASSIFICATION_TYPE = U
NORAD_CAT_ID   = 81605
ELEMENT_SET_NO = 999
REV_AT_EPOCH   = 19142
BSTAR          = -.31735E-3
MEAN_MOTION_DOT = -.182E-5
MEAN_MOTION_DDOT = 0

