UNKNOWN                 
1 81438U          26023.10394851  .00004252  00000+0  61793-2 0  9998
2 81438 100.3191 261.5888 0057810 333.6056  26.2137 13.54964431597547
UNKNOWN                 
1 81439U          26021.80781799  .00000083  00000+0  37402-3 0  9994
2 81439  67.1601  64.3178 0599910 178.8059 181.4561 12.62639016266958
UNKNOWN                 
1 81449U          26022.98513325  .00077009  00000+0  50676-2 0  9992
2 81449  66.7923 231.0682 0019310  85.9934 274.3411 15.06941549639751
UNKNOWN                 
1 81478U          26021.04454603  .00009847  00000+0  35174-2 0  9994
2 81478  98.9524 298.9631 0144020 244.5560 127.5097 14.28675103628556
UNKNOWN                 
1 81488U          26022.60532734  .00000102  00000+0  20893-3 0  9998
2 81488  99.9988 260.8711 0043980 258.6669 131.0061 13.56532611602175
UNKNOWN                 
1 81497U          26022.96297618  .00004963  00000+0  44550-2 0  9990
2 81497 100.3027 286.5661 0027916 272.2037 103.5400 13.84516466222009
UNKNOWN                 
1 81499U          26023.31792442  .00005020  00000+0  13749-2 0  9998
2 81499  74.0493 143.3998 0002577 273.2619  86.8245 14.47406251488432
UNKNOWN                 
1 81535U          26023.48329138  .00001684  00000+0  70311-3 0  9996
2 81535  98.1974 107.2855 0234972  28.1862 333.1802 14.13548589393298
UNKNOWN                 
1 81536U          26023.10491809  .00000744  00000+0  48047-2 0  9997
2 81536 101.9636 249.6629 0023928 226.6802 290.1565 12.55923496557000
UNKNOWN                 
1 81537U          26020.28149712  .00000446  00000+0  28648-3 0  9992
2 81537  71.0395  29.5094 0074427  94.4825 266.4801 14.07120841625880
UNKNOWN                 
1 81599U          26023.45797268  .00001309  00000+0  24235-2 0  9993
2 81599  67.2917 190.7205 0245828  53.7305 338.4756 13.31512221590632
UNKNOWN                 
1 81605U          26022.46361736 -.00000182  00000+0 -31735-3 0  9992
2 81605  56.4334  98.1795 0172411 191.6532 168.0379 12.81556508191421
